NUSAT-48 (HENRIETTA LE*)
1 60498U 24149AG  26068.80506098  .00012988  00000+0  45212-3 0  9999
2 60498  97.3923 150.8264 0002754 263.3026  96.7901 15.29812597 86946
STARLINK-35845          
1 66366U 25254U   26068.41892036  .00024261  00000+0  82833-3 0  9991
2 66366  53.1574 233.7480 0001539  86.4130 273.7047 15.30210065 18935
